{
    "links": {
        "self": "http://www.neowsapp.com/rest/v1/neo/3670999?api_key=iIulBulltgU6a56xZRHN4H3l9WmuAYTsLGpBGhQ2"
    },
    "id": "3670999",
    "neo_reference_id": "3670999",
    "name": "(2014 JY30)",
    "designation": "2014 JY30",
    "nasa_jpl_url": "http://ssd.jpl.nasa.gov/sbdb.cgi?sstr=3670999",
    "absolute_magnitude_h": 25.4,
    "estimated_diameter": {
        "kilometers": {
            "estimated_diameter_min": 0.022108281,
            "estimated_diameter_max": 0.0494356193
        },
        "meters": {
            "estimated_diameter_min": 22.1082810359,
            "estimated_diameter_max": 49.435619262
        },
        "miles": {
            "estimated_diameter_min": 0.0137374447,
            "estimated_diameter_max": 0.0307178602
        },
        "feet": {
            "estimated_diameter_min": 72.5337327539,
            "estimated_diameter_max": 162.1903570994
        }
    },
    "is_potentially_hazardous_asteroid": false,
    "close_approach_data": [
        {
            "close_approach_date": "2014-05-04",
            "close_approach_date_full": "2014-May-04 01:00",
            "epoch_date_close_approach": 1399165200000,
            "relative_velocity": {
                "kilometers_per_second": "11.0203993799",
                "kilometers_per_hour": "39673.437767811",
                "miles_per_hour": "24651.5313730046"
            },
            "miss_distance": {
                "astronomical": "0.0219153499",
                "lunar": "8.5250711111",
                "kilometers": "3278489.665344713",
                "miles": "2037159.0137265194"
            },
            "orbiting_body": "Earth"
        },
        {
            "close_approach_date": "2017-05-22",
            "close_approach_date_full": "2017-May-22 09:06",
            "epoch_date_close_approach": 1495443960000,
            "relative_velocity": {
                "kilometers_per_second": "20.3223227289",
                "kilometers_per_hour": "73160.361823968",
                "miles_per_hour": "45459.0037122317"
            },
            "miss_distance": {
                "astronomical": "0.3225675875",
                "lunar": "125.4787915375",
                "kilometers": "48255424.021038625",
                "miles": "29984530.085538025"
            },
            "orbiting_body": "Earth"
        },
        {
            "close_approach_date": "2024-07-21",
            "close_approach_date_full": "2024-Jul-21 21:06",
            "epoch_date_close_approach": 1721595960000,
            "relative_velocity": {
                "kilometers_per_second": "13.5468202399",
                "kilometers_per_hour": "48768.5528637905",
                "miles_per_hour": "30302.8821947258"
            },
            "miss_distance": {
                "astronomical": "0.0943997969",
                "lunar": "36.7215209941",
                "kilometers": "14122008.544672603",
                "miles": "8775009.2070758014"
            },
            "orbiting_body": "Mars"
        }
    ],
    "orbital_data": {
        "orbit_id": "6",
        "orbit_determination_date": "2017-04-06 08:40:35",
        "first_observation_date": "2014-05-07",
        "last_observation_date": "2014-05-10",
        "data_arc_in_days": 3,
        "observations_used": 33,
        "orbit_uncertainty": "8",
        "minimum_orbit_intersection": ".0064713",
        "jupiter_tisserand_invariant": "4.848",
        "epoch_osculation": "2456785.5",
        "eccentricity": ".4059544432886461",
        "semi_major_axis": "1.325338635507648",
        "inclination": "1.73838870619095",
        "ascending_node_longitude": "87.01324664544308",
        "orbital_period": "557.2995784552481",
        "perihelion_distance": ".7873115275612065",
        "perihelion_argument": "59.66750094744138",
        "aphelion_distance": "1.863365743454088",
        "perihelion_time": "2456726.939222035539",
        "mean_anomaly": "37.82863092350045",
        "mean_motion": ".6459721376389099",
        "equinox": "J2000",
        "orbit_class": {
            "orbit_class_type": "APO",
            "orbit_class_description": "Near-Earth asteroid orbits which cross the Earth’s orbit similar to that of 1862 Apollo",
            "orbit_class_range": "a (semi-major axis) > 1.0 AU; q (perihelion) < 1.017 AU"
        }
    },
    "is_sentry_object": false
}